{
    "links": {
        "self": "http://www.neowsapp.com/rest/v1/neo/3991738?api_key=iIulBulltgU6a56xZRHN4H3l9WmuAYTsLGpBGhQ2"
    },
    "id": "3991738",
    "neo_reference_id": "3991738",
    "name": "(2020 DL2)",
    "designation": "2020 DL2",
    "nasa_jpl_url": "http://ssd.jpl.nasa.gov/sbdb.cgi?sstr=3991738",
    "absolute_magnitude_h": 26.587,
    "estimated_diameter": {
        "kilometers": {
            "estimated_diameter_min": 0.0127983793,
            "estimated_diameter_max": 0.0286180461
        },
        "meters": {
            "estimated_diameter_min": 12.7983792878,
            "estimated_diameter_max": 28.6180460894
        },
        "miles": {
            "estimated_diameter_min": 0.0079525417,
            "estimated_diameter_max": 0.0177824239
        },
        "feet": {
            "estimated_diameter_min": 41.9894347026,
            "estimated_diameter_max": 93.8912303318
        }
    },
    "is_potentially_hazardous_asteroid": false,
    "close_approach_data": [
        {
            "close_approach_date": "1982-12-22",
            "close_approach_date_full": "1982-Dec-22 04:55",
            "epoch_date_close_approach": 409380900000,
            "relative_velocity": {
                "kilometers_per_second": "14.0918464905",
                "kilometers_per_hour": "50730.647365966",
                "miles_per_hour": "31522.0514147026"
            },
            "miss_distance": {
                "astronomical": "0.3316375951",
                "lunar": "129.0070244939",
                "kilometers": "49612277.838882437",
                "miles": "30827639.9524221506"
            },
            "orbiting_body": "Earth"
        },
        {
            "close_approach_date": "2020-02-16",
            "close_approach_date_full": "2020-Feb-16 06:36",
            "epoch_date_close_approach": 1581834960000,
            "relative_velocity": {
                "kilometers_per_second": "6.4969876734",
                "kilometers_per_hour": "23389.1556242773",
                "miles_per_hour": "14533.1117266516"
            },
            "miss_distance": {
                "astronomical": "0.0262477293",
                "lunar": "10.2103666977",
                "kilometers": "3926604.395616591",
                "miles": "2439878.8327513158"
            },
            "orbiting_body": "Earth"
        },
        {
            "close_approach_date": "2081-02-03",
            "close_approach_date_full": "2081-Feb-03 10:54",
            "epoch_date_close_approach": 3505805640000,
            "relative_velocity": {
                "kilometers_per_second": "6.5432547869",
                "kilometers_per_hour": "23555.7172328025",
                "miles_per_hour": "14636.6066327933"
            },
            "miss_distance": {
                "astronomical": "0.0683321149",
                "lunar": "26.5811926961",
                "kilometers": "10222338.841635263",
                "miles": "6351866.8162141094"
            },
            "orbiting_body": "Earth"
        }
    ],
    "orbital_data": {
        "orbit_id": "3",
        "orbit_determination_date": "2020-02-29 04:58:12",
        "first_observation_date": "2020-02-20",
        "last_observation_date": "2020-02-28",
        "data_arc_in_days": 8,
        "observations_used": 26,
        "orbit_uncertainty": "7",
        "minimum_orbit_intersection": ".0168242",
        "jupiter_tisserand_invariant": "4.454",
        "epoch_osculation": "2459000.5",
        "eccentricity": ".3407425879657572",
        "semi_major_axis": "1.506639029257317",
        "inclination": "8.587533184481806",
        "ascending_node_longitude": "153.78527630",
        "orbital_period": "675.4796150902908",
        "perihelion_distance": ".9932629472979624",
        "perihelion_argument": "340.504800893081",
        "aphelion_distance": "2.020015111216671",
        "perihelion_time": "2458884.099111303380",
        "mean_anomaly": "62.0363945774762",
        "mean_motion": ".532954647272189",
        "equinox": "J2000",
        "orbit_class": {
            "orbit_class_type": "APO",
            "orbit_class_description": "Near-Earth asteroid orbits which cross the Earth’s orbit similar to that of 1862 Apollo",
            "orbit_class_range": "a (semi-major axis) > 1.0 AU; q (perihelion) < 1.017 AU"
        }
    },
    "is_sentry_object": false
}